NORAD_CAT_ID,OBJECT_NAME,OBJECT_TYPE,EPOCH,MEAN_MOTION,ECCENTRICITY,INCLINATION,RA_OF_ASC_NODE,ARG_OF_PERICENTER,MEAN_ANOMALY,BSTAR,MEAN_MOTION_DOT,MEAN_MOTION_DDOT,TLE_LINE0,TLE_LINE1,TLE_LINE2,SEMIMAJOR_AXIS,PERIOD,APOGEE,PERIGEE,DECAYED
51979.0,STARLINK-3656,PAYLOAD,2022-06-08 14:00:01,15.08839991,0.0001924,53.2205,69.7536,46.8041,335.4911,-0.00014862,-2.653e-05,0.0,0 STARLINK-3656,1 51979U 22025Z   22159.58334491 -.00002653  00000-0 -14862-3 0  9990,2 51979  53.2205  69.7536 0001924  46.8041 335.4911 15.08839991 15336,6917.88,95.438,541.076,538.414,0.0
51979.0,STARLINK-3656,PAYLOAD,2022-06-08 22:00:01,15.08857671,0.0001961,53.2208,68.2583,44.7909,349.1522,-0.0042832,-0.00067848,0.0,0 STARLINK-3656,1 51979U 22025Z   22159.91668981 -.00067848  00000-0 -42832-2 0  9995,2 51979  53.2208  68.2583 0001961  44.7909 349.1522 15.08857671  1303,6917.826,95.436,541.048,538.335,0.0
51979.0,STARLINK-3656,PAYLOAD,2022-06-09 06:00:00,15.08796802,0.0002026,53.2203,66.7628,39.7514,5.7184,0.0016887,0.00026658,0.0,0 STARLINK-3656,1 51979U 22025Z   22160.25001157  .00026658  00000-0  16887-2 0  9993,2 51979  53.2203  66.7628 0002026  39.7514   5.7184 15.08796802 15436,6918.012,95.44,541.279,538.476,0.0
51979.0,STARLINK-3656,PAYLOAD,2022-06-09 14:00:01,15.08789149,0.0001819,53.2205,65.2649,46.0374,10.9969,0.0029814,0.00047414,0.0,0 STARLINK-3656,1 51979U 22025Z   22160.58334491  .00047414  00000-0  29814-2 0  9996,2 51979  53.2205  65.2649 0001819  46.0374  10.9969 15.08789149  1305,6918.036,95.441,541.159,538.6419999999998,0.0
51979.0,STARLINK-3656,PAYLOAD,2022-06-09 22:00:00,15.088352100000002,0.0001952,53.2206,63.77,45.8038,22.7835,-0.0016232,-0.00026026,0.0,0 STARLINK-3656,1 51979U 22025Z   22160.91667824 -.00026026  00000-0 -16232-2 0  9990,2 51979  53.2206  63.7700 0001952  45.8038  22.7835 15.08835210  1303,6917.895,95.438,541.11,538.41,0.0
51979.0,STARLINK-3656,PAYLOAD,2022-06-10 08:00:01,15.088402599999998,0.0002013,53.2201,61.8994,44.2411,128.8113,-0.0012973,-0.00020876,0.0,0 STARLINK-3656,1 51979U 22025Z   22161.33334491 -.00020876  00000-0 -12973-2 0  9993,2 51979  53.2201  61.8994 0002013  44.2411 128.8113 15.08840260 15605,6917.88,95.438,541.137,538.352,0.0
51979.0,STARLINK-3656,PAYLOAD,2022-06-10 14:00:01,15.08807185,0.0001873,53.2203,60.776,48.5908,43.1589,0.0028962,0.00046065,0.0,0 STARLINK-3656,1 51979U 22025Z   22161.58334491  .00046065  00000-0  28962-2 0  9991,2 51979  53.2203  60.7760 0001873  48.5908  43.1589 15.08807185  1304,6917.981,95.44,541.141,538.55,0.0
51979.0,STARLINK-3656,PAYLOAD,2022-06-10 22:00:00,15.08850512,0.0002019,53.2204,59.2812,47.937,55.3892,-0.0014625,-0.00023496,0.0,0 STARLINK-3656,1 51979U 22025Z   22161.91667824 -.00023496  00000-0 -14625-2 0  9993,2 51979  53.2204  59.2812 0002019  47.9370  55.3892 15.08850512 15696,6917.848000000001,95.437,541.11,538.317,0.0
51979.0,STARLINK-3656,PAYLOAD,2022-06-11 14:00:01,15.08833906,0.0002024,53.2186,56.2893,50.7602,75.767,0.0018713,0.00029615,0.0,0 STARLINK-3656,1 51979U 22025Z   22162.58334491  .00029615  00000-0  18713-2 0  9997,2 51979  53.2186  56.2893 0002024  50.7602  75.7670 15.08833906 15796,6917.899,95.438,541.164,538.364,0.0
51979.0,STARLINK-3656,PAYLOAD,2022-06-11 22:00:00,15.08875688,0.0002062,53.2205,54.7927,48.2489,89.8847,-0.0040896,-0.00064853,0.0,0 STARLINK-3656,1 51979U 22025Z   22162.91667824 -.00064853  00000-0 -40896-2 0  9995,2 51979  53.2205  54.7927 0002062  48.2489  89.8847 15.08875688  1303,6917.771,95.435,541.063,538.21,0.0
51979.0,STARLINK-3656,PAYLOAD,2022-06-12 06:00:02,15.08839439,0.0002093,53.2204,53.2966,43.9975,105.8062,0.00045101,6.897e-05,0.0,0 STARLINK-3656,1 51979U 22025Z   22163.25002315  .00006897  00000-0  45101-3 0  9998,2 51979  53.2204  53.2966 0002093  43.9975 105.8062 15.08839439 15896,6917.882,95.438,541.195,538.299,0.0
51979.0,STARLINK-3656,PAYLOAD,2022-06-12 14:00:01,15.08826071,0.0001936,53.2206,51.7988,49.46100000000001,111.8837,0.0028885,0.00045965,0.0,0 STARLINK-3656,1 51979U 22025Z   22163.58334491  .00045965  00000-0  28885-2 0  9995,2 51979  53.2206  51.7988 0001936  49.4610 111.8837 15.08826071  1303,6917.9230000000025,95.438,541.127,538.4490000000002,0.0
51979.0,STARLINK-3656,PAYLOAD,2022-06-12 22:00:00,15.08869965,0.000207,53.2209,50.3041,46.9917,125.9534,-0.0036531,-0.00058008,0.0,0 STARLINK-3656,1 51979U 22025Z   22163.91667824 -.00058008  00000-0 -36531-2 0  9992,2 51979  53.2209  50.3041 0002070  46.9917 125.9534 15.08869965  1302,6917.7890000000025,95.436,541.086,538.222,0.0
51979.0,STARLINK-3656,PAYLOAD,2022-06-13 14:00:01,15.08844503,0.00019,53.221,47.3102,48.3763,147.7844,0.00092291,0.00014432,0.0,0 STARLINK-3656,1 51979U 22025Z   22164.58334491  .00014432  00000-0  92291-3 0  9994,2 51979  53.2210  47.3102 0001900  48.3763 147.7844 15.08844503 16093,6917.8669999999975,95.437,541.0459999999998,538.4169999999998,0.0
51979.0,STARLINK-3656,PAYLOAD,2022-06-13 22:00:00,15.08845791,0.0002015,53.2212,45.8156,44.493,163.2821,-0.00052182,-8.585e-05,0.0,0 STARLINK-3656,1 51979U 22025Z   22164.91667824 -.00008585  00000-0 -52182-3 0  9999,2 51979  53.2212  45.8156 0002015  44.4930 163.2821 15.08845791  1304,6917.863,95.437,541.122,538.3340000000002,0.0
51979.0,STARLINK-3656,PAYLOAD,2022-06-14 06:00:00,15.08855866,0.0001976,53.2212,44.3192,41.328,178.0425,-0.0024942,-0.00039782,0.0,0 STARLINK-3656,1 51979U 22025Z   22165.25001157 -.00039782  00000-0 -24942-2 0  9993,2 51979  53.2212  44.3192 0001976  41.3280 178.0425 15.08855866 16198,6917.831999999999,95.437,541.064,538.33,0.0
51979.0,STARLINK-3656,PAYLOAD,2022-06-14 14:00:01,15.08837514,0.0001749,53.2173,42.8238,52.8029,178.0694,-0.00015359,-2.732e-05,0.0,0 STARLINK-3656,1 51979U 22025Z   22165.58334491 -.00002732  00000-0 -15359-3 0  9997,2 51979  53.2173  42.8238 0001749  52.8029 178.0694 15.08837514 16248,6917.888000000001,95.438,540.9630000000002,538.543,0.0
51979.0,STARLINK-3656,PAYLOAD,2022-06-14 22:00:00,15.08836798,0.0001963,53.2213,41.327,42.3815,200.1372,-0.00014283,-2.56e-05,0.0,0 STARLINK-3656,1 51979U 22025Z   22165.91667824 -.00002560  00000-0 -14283-3 0  9997,2 51979  53.2213  41.3270 0001963  42.3815 200.1372 15.08836798 16296,6917.89,95.438,541.113,538.3969999999998,0.0
51979.0,STARLINK-3656,PAYLOAD,2022-06-15 14:00:01,15.08815206,0.0001710999999999,53.2213,38.3328,44.8014,220.9116,0.0024551,0.00038975,0.0,0 STARLINK-3656,1 51979U 22025Z   22166.58334491  .00038975  00000-0  24551-2 0  9997,2 51979  53.2213  38.3328 0001711  44.8014 220.9116 15.08815206  1308,6917.956,95.439,541.005,538.638,0.0
51979.0,STARLINK-3656,PAYLOAD,2022-06-15 22:00:00,15.08841776,0.0001895,53.2212,36.8382,41.2874,236.0123,0.00018943,2.728e-05,0.0,0 STARLINK-3656,1 51979U 22025Z   22166.91667824  .00002728  00000-0  18943-3 0  9999,2 51979  53.2212  36.8382 0001895  41.2874 236.0123 15.08841776  1305,6917.875,95.437,541.0509999999998,538.429,0.0
51979.0,STARLINK-3656,PAYLOAD,2022-06-16 02:00:01,15.08825014,0.0001929,53.221,36.0905,39.3034,63.8017,0.0037094,0.00059219,0.0,0 STARLINK-3656,1 51979U 22025Z   22167.08334491  .00059219  00000-0  37094-2 0  9993,2 51979  53.2210  36.0905 0001929  39.3034  63.8017 15.08825014  1305,6917.926,95.439,541.126,538.457,0.0
51979.0,STARLINK-3656,PAYLOAD,2022-06-19 14:00:01,15.08834147,0.0001834,53.2205,20.3774,51.4514,353.3047,0.0020877,0.00033089,0.0,0 STARLINK-3656,1 51979U 22025Z   22170.58334491  .00033089  00000-0  20877-2 0  9990,2 51979  53.2205  20.3774 0001834  51.4514 353.3047 15.08834147  1309,6917.898,95.438,541.0319999999998,538.495,0.0
51979.0,STARLINK-3656,PAYLOAD,2022-06-19 20:00:01,15.08859666,0.0001963,53.2204,19.2567,46.6554,276.7963,-0.0020032,-0.00032045,0.0,0 STARLINK-3656,1 51979U 22025Z   22170.83334491 -.00032045  00000-0 -20032-2 0  9994,2 51979  53.2204  19.2567 0001963  46.6554 276.7963 15.08859666 17033,6917.82,95.436,541.043,538.327,0.0
51979.0,STARLINK-3656,PAYLOAD,2022-06-19 22:00:00,15.08853657,0.0002008,53.2206,18.883,45.5845,10.7705,-0.0016529,-0.00026508,0.0,0 STARLINK-3656,1 51979U 22025Z   22170.91667824 -.00026508  00000-0 -16529-2 0  9995,2 51979  53.2206  18.8830 0002008  45.5845  10.7705 15.08853657  1302,6917.839,95.437,541.0930000000002,538.315,0.0
51979.0,STARLINK-3656,PAYLOAD,2022-06-20 12:00:00,15.08818857,0.0001792,53.2208,16.2625,48.4234,298.2309,0.003189,0.00050802,0.0,0 STARLINK-3656,1 51979U 22025Z   22171.50001157  .00050802  00000-0  31890-2 0  9992,2 51979  53.2208  16.2625 0001792  48.4234 298.2309 15.08818857 17135,6917.945,95.439,541.05,538.57,0.0
51979.0,STARLINK-3656,PAYLOAD,2022-06-20 14:00:01,15.0884476,0.0001814,53.221,15.8886,48.7064,30.8367,0.00059181,9.144e-05,0.0,0 STARLINK-3656,1 51979U 22025Z   22171.58334491  .00009144  00000-0  59181-3 0  9997,2 51979  53.2210  15.8886 0001814  48.7064  30.8367 15.08844760  1309,6917.866,95.437,540.986,538.476,0.0
51979.0,STARLINK-3656,PAYLOAD,2022-06-20 22:00:00,15.08849656,0.0002008,53.2211,14.3942,43.831,47.3162,-0.0004503,-7.45e-05,0.0,0 STARLINK-3656,1 51979U 22025Z   22171.91667824 -.00007450  00000-0 -45030-3 0  9991,2 51979  53.2211  14.3942 0002008  43.8310  47.3162 15.08849656  1308,6917.851,95.437,541.105,538.327,0.0
51979.0,STARLINK-3656,PAYLOAD,2022-06-21 06:00:00,15.0884961,0.0001851,53.2212,12.8968,43.3061,59.4509,-0.0012861,-0.00020704,0.0,0 STARLINK-3656,1 51979U 22025Z   22172.25001157 -.00020704  00000-0 -12861-2 0  9992,2 51979  53.2212  12.8968 0001851  43.3061  59.4509 15.08849610 17253,6917.851,95.437,540.997,538.436,0.0
51979.0,STARLINK-3656,PAYLOAD,2022-06-21 14:00:01,15.08852049,0.0001796,53.2216,11.4,46.9068,67.4393,3.2251e-05,2.25e-06,0.0,0 STARLINK-3656,1 51979U 22025Z   22172.58334491  .00000225  00000-0  32251-4 0  9999,2 51979  53.2216  11.4000 0001796  46.9068  67.4393 15.08852049  1302,6917.844,95.437,540.951,538.466,0.0
